{"type": "FeatureCollection", "features": [ {"type": "Feature", "properties": {"norad_id": 66911, "name": "1998-067XX", "group": "stations", "lat": -18.753795395992448, "lon": 51.89547334027317, "alt_km": 405.3628428790489, "timestamp": "2025-12-27T18:38:02.239249+00:00", "meta": {"OBJECT_NAME": "1998-067XX", "OBJECT_ID": "1998-067XX", "EPOCH": "2025-12-27T09:28:42.532608", "MEAN_MOTION": 15.54137727, "ECCENTRICITY": 0.0003462, "INCLINATION": 51.6308, "RA_OF_ASC_NODE": 69.4034, "ARG_OF_PERICENTER": 299.6786, "MEAN_ANOMALY": 60.3859, "EPHEMERIS_TYPE": 0, "CLASSIFICATION_TYPE": "U", "NORAD_CAT_ID": 66911, "ELEMENT_SET_NO": 999, "REV_AT_EPOCH": 388, "BSTAR": 0.0012426, "MEAN_MOTION_DOT": 0.0008268, "MEAN_MOTION_DDOT": 0}, "tle": {"line1": "1 66911U 98067XX  25361.39493672  .00082680  00000+0  12426-2 0  9993", "line2": "2 66911  51.6308  69.4034 0003462 299.6786  60.3859 15.54137727  3888"}}, "geometry": {"type": "Point", "coordinates": [51.89547334027317, -18.753795395992448]}}, {"type": "Feature", "properties": {"norad_id": 66912, "name": "1998-067XY", "group": "stations", "lat": -47.21521655075613, "lon": -53.44600807526136, "alt_km": 412.14124940669717, "timestamp": "2025-12-27T18:38:02.239258+00:00", "meta": {"OBJECT_NAME": "1998-067XY", "OBJECT_ID": "1998-067XY", "EPOCH": "2025-12-27T05:12:20.649888", "MEAN_MOTION": 15.52574078, "ECCENTRICITY": 0.0003872, "INCLINATION": 51.6314, "RA_OF_ASC_NODE": 70.4653, "ARG_OF_PERICENTER": 305.7746, "MEAN_ANOMALY": 54.2884, "EPHEMERIS_TYPE": 0, "CLASSIFICATION_TYPE": "U", "NORAD_CAT_ID": 66912, "ELEMENT_SET_NO": 999, "REV_AT_EPOCH": 385, "BSTAR": 0.0008769, "MEAN_MOTION_DOT": 0.00054785, "MEAN_MOTION_DDOT": 0}, "tle": {"line1": "1 66912U 98067XY  25361.21690567  .00054785  00000+0  87690-3 0  9998", "line2": "2 66912  51.6314  70.4653 0003872 305.7746  54.2884 15.52574078  3854"}}, "geometry": {"type": "Point", "coordinates": [-53.44600807526136, -47.21521655075613]}}]}